NORAD_CAT_ID,OBJECT_NAME,OBJECT_TYPE,EPOCH,MEAN_MOTION,ECCENTRICITY,INCLINATION,RA_OF_ASC_NODE,ARG_OF_PERICENTER,MEAN_ANOMALY,BSTAR,MEAN_MOTION_DOT,MEAN_MOTION_DDOT,TLE_LINE0,TLE_LINE1,TLE_LINE2,SEMIMAJOR_AXIS,PERIOD,APOGEE,PERIGEE,DECAYED
53937.0,STARLINK-4765,PAYLOAD,2023-01-07 06:00:00,15.67625419,0.0001069,53.2168,96.9086,73.9637,313.3891,-0.0093376,-0.00943331,0.0,0 STARLINK-4765,1 53937U 22119BD  23007.25001157 -.00943331  00000-0 -93376-2 0  9990,2 53937  53.2168  96.9086 0001069  73.9637 313.3891 15.67625419 16857,6743.835999999998,91.859,366.422,364.98,0.0
53937.0,STARLINK-4765,PAYLOAD,2023-01-08 00:00:00,15.66137386,0.0001031,53.2175,93.2315,85.4059,214.9162,-0.0095597,-0.00911881,0.0,0 STARLINK-4765,1 53937U 22119BD  23008.00001157 -.00911881  00000-0 -95597-2 0  9996,2 53937  53.2175  93.2315 0001031  85.4059 214.9162 15.66137386  1306,6748.107,91.946,370.667,369.276,0.0
53937.0,STARLINK-4765,PAYLOAD,2023-01-08 14:00:01,15.64995078,0.0001042,53.2169,90.3799,92.9076,256.9765,-0.0099565,-0.00907395,0.0,0 STARLINK-4765,1 53937U 22119BD  23008.58334491 -.00907395  00000-0 -99565-2 0  9993,2 53937  53.2169  90.3799 0001042  92.9076 256.9765 15.64995078  1300,6751.39,92.013,373.958,372.551,0.0
53937.0,STARLINK-4765,PAYLOAD,2023-01-08 22:00:00,15.64349923,0.0001132,53.2167,88.7498,66.25399999999999,2.3025,-0.010311,-0.00915029,0.0,0 STARLINK-4765,1 53937U 22119BD  23008.91667824 -.00915029  00000-0 -10311-1 0  9993,2 53937  53.2167  88.7498 0001132  66.2540   2.3025 15.64349923  1309,6753.246,92.051,375.875,374.347,0.0
53937.0,STARLINK-4765,PAYLOAD,2023-01-09 14:00:01,15.63065881,0.0001309,53.217,85.4983,79.4898,144.0587,-0.011157,-0.00938576,0.0,0 STARLINK-4765,1 53937U 22119BD  23009.58334491 -.00938576  00000-0 -11157-1 0  9999,2 53937  53.2170  85.4983 0001309  79.4898 144.0587 15.63065881  1308,6756.944,92.127,379.693,377.925,0.0
53937.0,STARLINK-4765,PAYLOAD,2023-01-09 16:00:00,15.62879193,0.000106,53.2172,85.0918,76.1554,256.5599,-0.010808,-0.00905647,0.0,0 STARLINK-4765,1 53937U 22119BD  23009.66667824 -.00905647  00000-0 -10808-1 0  9992,2 53937  53.2172  85.0918 0001060  76.1554 256.5599 15.62879193 17229,6757.482,92.138,380.0630000000001,378.631,0.0
53937.0,STARLINK-4765,PAYLOAD,2023-01-10 00:00:00,15.62230331,0.0001146,53.2177,83.4659,59.9356,348.9121,-0.01113,-0.00908843,0.0,0 STARLINK-4765,1 53937U 22119BD  23010.00001157 -.00908843  00000-0 -11130-1 0  9993,2 53937  53.2177  83.4659 0001146  59.9356 348.9121 15.62230331  1306,6759.353,92.176,381.99300000000005,380.443,0.0
53937.0,STARLINK-4765,PAYLOAD,2023-01-10 14:00:01,15.61090041,0.0001212,53.2173,80.6308,63.6279,26.5671,-0.011614,-0.00907246,0.0,0 STARLINK-4765,1 53937U 22119BD  23010.58334491 -.00907246  00000-0 -11614-1 0  9999,2 53937  53.2173  80.6308 0001212  63.6279  26.5671 15.61090041 17376,6762.644,92.243,385.329,383.69,0.0
53937.0,STARLINK-4765,PAYLOAD,2023-01-10 22:00:00,15.60416174,0.0001158,53.2119,79.0145,81.3779,82.8462,-0.01154,-0.00880721,0.0,0 STARLINK-4765,1 53937U 22119BD  23010.91667824 -.00880721  00000-0 -11540-1 0  9991,2 53937  53.2119  79.0145 0001158  81.3779  82.8462 15.60416174  1305,6764.590999999999,92.283,387.239,385.673,0.0
53937.0,STARLINK-4765,PAYLOAD,2023-01-11 14:00:01,15.59137586,0.0001212,53.2174,75.777,57.6771,252.1127,-0.012524,-0.00907381,0.0,0 STARLINK-4765,1 53937U 22119BD  23011.58334491 -.00907381  00000-0 -12524-1 0  9991,2 53937  53.2174  75.7770 0001212  57.6771 252.1127 15.59137586 17528,6768.289000000002,92.359,390.974,389.333,0.0
53937.0,STARLINK-4765,PAYLOAD,2023-01-11 22:00:00,15.58488648,0.000119,53.2174,74.1609,55.7812,325.6424,-0.012885,-0.00910404,0.0,0 STARLINK-4765,1 53937U 22119BD  23011.91667824 -.00910404  00000-0 -12885-1 0  9997,2 53937  53.2174  74.1609 0001190  55.7812 325.6424 15.58488648  1304,6770.167,92.397,392.838,391.227,0.0
53937.0,STARLINK-4765,PAYLOAD,2023-01-12 20:00:01,15.56710158,0.0001325,53.2123,69.7334,83.0013,41.416,-0.014196,-0.0093534,0.0,0 STARLINK-4765,1 53937U 22119BD  23012.83334491 -.00935340  00000-0 -14196-1 0  9993,2 53937  53.2123  69.7334 0001325  83.0013  41.4160 15.56710158 17725,6775.323,92.503,398.086,396.29,0.0
53937.0,STARLINK-4765,PAYLOAD,2023-01-12 22:00:00,15.56519303,0.0001343,53.2124,69.3306,92.4747,139.2006,-0.013521,-0.00888988,0.0,0 STARLINK-4765,1 53937U 22119BD  23012.91667824 -.00888988  00000-0 -13521-1 0  9997,2 53937  53.2124  69.3306 0001343  92.4747 139.2006 15.56519303  1300,6775.877,92.514,398.652,396.832,0.0
53937.0,STARLINK-4765,PAYLOAD,2023-01-13 14:00:01,15.5521281,0.0001205,53.2117,66.1172,82.3631,285.5339,-0.013865,-0.00870037,0.0,0 STARLINK-4765,1 53937U 22119BD  23013.58334491 -.00870037  00000-0 -13865-1 0  9999,2 53937  53.2117  66.1172 0001205  82.3631 285.5339 15.55212810 17847,6779.670999999999,92.592,402.353,400.719,0.0
53937.0,STARLINK-4765,PAYLOAD,2023-01-13 22:00:00,15.54563134,0.0001216,53.2118,64.5099,90.6709,344.1716,-0.014436,-0.00883106,0.0,0 STARLINK-4765,1 53937U 22119BD  23013.91667824 -.00883106  00000-0 -14436-1 0  9991,2 53937  53.2118  64.5099 0001216  90.6709 344.1716 15.54563134  1300,6781.56,92.631,404.249,402.6,0.0
53937.0,STARLINK-4765,PAYLOAD,2023-01-14 06:00:00,15.53949084,0.0001338,53.2119,62.9066,91.2349,49.7521,-0.015829,-0.00954165,0.0,0 STARLINK-4765,1 53937U 22119BD  23014.25001157 -.00954165  00000-0 -15829-1 0  9991,2 53937  53.2119  62.9066 0001338  91.2349  49.7521 15.53949084 17949,6783.346,92.667,406.119,404.304,0.0
53937.0,STARLINK-4765,PAYLOAD,2023-01-14 14:00:01,15.53071345,0.0001161,53.2179,61.302,81.2705,125.087,0.00079261,0.00050268,0.0,0 STARLINK-4765,1 53937U 22119BD  23014.58334491  .00050268  00000-0  79261-3 0  9998,2 53937  53.2179  61.3020 0001161  81.2705 125.0870 15.53071345 17993,6785.901999999999,92.72,408.555,406.979,0.0
53937.0,STARLINK-4765,PAYLOAD,2023-01-14 22:00:00,15.52601743,0.0001204,53.2123,59.7034,96.0287,174.9439,-0.015246,-0.00869323,0.0,0 STARLINK-4765,1 53937U 22119BD  23014.91667824 -.00869323  00000-0 -15246-1 0  9997,2 53937  53.2123  59.7034 0001204  96.0287 174.9439 15.52601743 18046,6787.27,92.748,409.952,408.318,0.0
53937.0,STARLINK-4765,PAYLOAD,2023-01-15 14:00:01,15.51313542,0.0001065,53.2125,56.5089,72.3648,325.4352,-0.016172,-0.00879158,0.0,0 STARLINK-4765,1 53937U 22119BD  23015.58334491 -.00879158  00000-0 -16172-1 0  9998,2 53937  53.2125  56.5089 0001065  72.3648 325.4352 15.51313542 18151,6791.026999999999,92.825,413.615,412.169,0.0
53937.0,STARLINK-4765,PAYLOAD,2023-01-15 22:00:01,15.50614086,0.0001048,53.2128,54.9111,85.3182,14.8105,-0.014744,-0.00789388,0.0,0 STARLINK-4765,1 53937U 22119BD  23015.91668981 -.00789388  00000-0 -14744-1 0  9997,2 53937  53.2128  54.9111 0001048  85.3182  14.8105 15.50614086  1300,6793.069,92.866,415.646,414.222,0.0
53937.0,STARLINK-4765,PAYLOAD,2023-01-16 06:00:00,15.49948042,0.0001219,53.2133,53.3176,84.2123,77.2948,-0.0019594,-0.0011035,0.0,0 STARLINK-4765,1 53937U 22119BD  23016.25001157 -.00110350  00000-0 -19594-2 0  9997,2 53937  53.2133  53.3176 0001219  84.2123  77.2948 15.49948042 18253,6795.015,92.906,417.708,416.052,0.0
53937.0,STARLINK-4765,PAYLOAD,2023-01-16 14:00:01,15.49863086,0.0001268,53.2132,51.7256,77.1507,145.2942,0.00087888,0.00049708,0.0,0 STARLINK-4765,1 53937U 22119BD  23016.58334491  .00049708  00000-0  87888-3 0  9991,2 53937  53.2132  51.7256 0001268  77.1507 145.2942 15.49863086 18304,6795.263000000001,92.911,417.99,416.267,0.0
53937.0,STARLINK-4765,PAYLOAD,2023-01-16 22:00:00,15.49881439,0.0001219,53.2142,50.1305,89.6462,193.7112,0.0003097,0.00017162,0.0,0 STARLINK-4765,1 53937U 22119BD  23016.91667824  .00017162  00000-0  30970-3 0  9996,2 53937  53.2142  50.1305 0001219  89.6462 193.7112 15.49881439  1308,6795.21,92.91,417.903,416.246,0.0
53937.0,STARLINK-4765,PAYLOAD,2023-01-17 14:00:01,15.49872755,0.00013,53.2139,46.9463,70.2961,334.8934,0.00052408,0.00029392,0.0,0 STARLINK-4765,1 53937U 22119BD  23017.58334491  .00029392  00000-0  52408-3 0  9999,2 53937  53.2139  46.9463 0001300  70.2961 334.8934 15.49872755 18469,6795.235,92.911,417.983,416.217,0.0
53937.0,STARLINK-4765,PAYLOAD,2023-01-17 22:00:00,15.50037754,0.000136,53.2142,45.3513,80.835,25.2518,-0.0138699999999999,-0.00732091,0.0,0 STARLINK-4765,1 53937U 22119BD  23017.91667824 -.00732091  00000-0 -13870-1 0  9992,2 53937  53.2142  45.3513 0001360  80.8350  25.2518 15.50037754 18516,6794.753000000001,92.901,417.542,415.694,0.0
53937.0,STARLINK-4765,PAYLOAD,2023-01-18 06:00:00,15.495122899999998,0.0001365999999999,53.2144,43.7595,80.6937,86.1849,-0.0181379999999999,-0.00933371,0.0,0 STARLINK-4765,1 53937U 22119BD  23018.25001157 -.00933371  00000-0 -18138-1 0  9997,2 53937  53.2144  43.7595 0001366  80.6937  86.1849 15.49512290 18564,6796.289000000001,92.932,419.082,417.225,0.0
53937.0,STARLINK-4765,PAYLOAD,2023-01-18 14:00:01,15.48878081,0.0001326,53.2142,42.169,76.5198,150.4091,-0.018778,-0.00943904,0.0,0 STARLINK-4765,1 53937U 22119BD  23018.58334491 -.00943904  00000-0 -18778-1 0  9996,2 53937  53.2142  42.1690 0001326  76.5198 150.4091 15.48878081  1300,6798.144,92.971,420.91,419.107,0.0
53937.0,STARLINK-4765,PAYLOAD,2023-01-18 22:00:00,15.48170749,0.0001227,53.2146,40.577,87.118,199.1136,-0.017372,-0.00847471,0.0,0 STARLINK-4765,1 53937U 22119BD  23018.91667824 -.00847471  00000-0 -17372-1 0  9993,2 53937  53.2146  40.5770 0001227  87.1180 199.1136 15.48170749  1300,6800.214,93.013,422.914,421.245,0.0
53937.0,STARLINK-4765,PAYLOAD,2023-01-19 14:00:01,15.46931443,0.0001182,53.2145,37.4037,67.4871,334.9341,-0.0204069999999999,-0.00956859,0.0,0 STARLINK-4765,1 53937U 22119BD  23019.58334491 -.00956859  00000-0 -20407-1 0  9992,2 53937  53.2145  37.4037 0001182  67.4871 334.9341 15.46931443 18778,6803.846,93.088,426.515,424.907,0.0
